#cP2015  8 22  0  0  0.00000000      96 ORBIT IGb08 HLM  IGS
## 1858 518400.00000000   900.00000000 57256 0.0000000000000
+   31   G01G02G03G04G05G06G07G08G09G11G12G13G14G15G16G17G18
+        G19G20G21G22G23G24G25G26G27G28G29G30G31G32  0  0  0
+          0  0  0  0  0  0  0  0  0  0  0  0  0  0  0  0  0
+          0  0  0  0  0  0  0  0  0  0  0  0  0  0  0  0  0
+          0  0  0  0  0  0  0  0  0  0  0  0  0  0  0  0  0
++         2  2  2  2  2  2  2  3  2  2  2  2  2  2  2  2  2
++         2  2  2  2  2  2  2  2  2  2  2  2  2  2  0  0  0
++         0  0  0  0  0  0  0  0  0  0  0  0  0  0  0  0  0
++         0  0  0  0  0  0  0  0  0  0  0  0  0  0  0  0  0
++         0  0  0  0  0  0  0  0  0  0  0  0  0  0  0  0  0
%c G  cc GPS ccc cccc cccc cccc cccc ccccc ccccc ccccc ccccc
%c cc cc ccc ccc cccc cccc cccc cccc ccccc ccccc ccccc ccccc
%f  1.2500000  1.025000000  0.00000000000  0.000000000000000
%f  0.0000000  0.000000000  0.00000000000  0.000000000000000
%i    0    0    0    0      0      0      0      0         0
%i    0    0    0    0      0      0      0      0         0
/* FINAL ORBIT COMBINATION FROM WEIGHTED AVERAGE OF:        
/* cod emr esa gfz grg jpl mit ngs sio                      
/* REFERENCED TO IGS TIME (IGST) AND TO WEIGHTED MEAN POLE: 
/* PCV:IGS08_1854 OL/AL:FES2004  NONE     Y  ORB:CMB CLK:CMB
*  2015  8 22 22 30  0.00000000
PG01  12053.077309  13430.852532 -19618.915477     -0.820802  8  7  5 109       
PG02  12273.032064 -14429.124239  18821.421101    585.359372  6  5  4 120       
PG03  13364.382896  22921.901899   -783.552929     17.870606  8  4  4 116       
PG04   1781.014490  15739.836110 -21669.066539 999999.999999
PG05   2573.508291 -19697.295002  17482.966501   -203.655730  7  5  7 101       
PG06  22992.719234  -7999.028306  10611.526623     43.166172  6  6  5 120       
PG07  24139.662604   6580.519497   9592.175194    481.282724  8  7  5 110       
PG08  -2107.573330  23055.949320 -12986.259044     -2.687224  9  6  3 134       
PG09  13518.047791   7183.469777  21701.927593    -11.063439  5  4  4 120       
PG11   7559.688893  15161.745960 -21010.168324   -599.581024  8  4  5  90       
PG12 -10642.175634 -24224.508280  -3497.810562    321.280768  9  6  5  97       
PG13  12129.439994 -23205.436409  -4939.409420   -143.190522  5  7  6  98       
PG14 -19002.165548   9436.326380 -15628.039482     39.915486  8  5  6  97       
PG15    470.972995 -23094.382974 -12910.598441   -267.533112  7  7  5 117       
PG16  -3568.212175  18827.059281  18140.162755    -94.579836  8  7  6 116       
PG17  18586.286768 -11009.603058 -15006.682557   -185.127087  7  6  6 109       
PG18 -19545.977336 -11307.623605 -13695.406692    427.697970  9  7  7 115       
PG19  -2582.493759  21893.407484 -14732.287734   -518.803310  6  6  4  50       
PG20 -12333.980305 -22994.270671   4559.301176    349.140135 10  6  7 115       
PG21 -25437.936931  -4500.804812   7592.522590   -474.063704  6  6  3  99       
PG22 -16699.705120   2429.813565 -20303.577010    383.946485  7  7  4  95       
PG23   4716.509052  18683.768081  18250.453284   -128.792163  3  6  6  88       
PG24  -9134.667794 -14235.730934 -20546.813101     -3.454607  6  5  7 118       
PG25 -17631.259096 -18106.782128   8331.307339    -28.866093  5  5  7 104       
PG26 -11047.602211  10832.567678  21580.454034    -33.253177  7  5  4 101       
PG27 -11745.648896  23711.863736  -1356.096646     13.895064  7  5  5 105       
PG28  16504.224732   3390.618436 -19936.700040    462.367181  8  7  5 114       
PG29 -11306.220429  -9982.529993  21878.951108    629.578570 10  7  5 101       
PG30  26560.767915    193.447680  -1533.535536     10.981932  6  3  5 101       
PG31 -22835.986757   7721.826677  11649.851485    305.478544  9  5  4 105       
PG32   2823.165388  24044.137600 -11563.719041    -64.974247  7  6  5  88       
*  2015  8 22 22 45  0.00000000
PG01   9771.849255  13632.411135 -20704.188494     -0.820308  7  7  5 104       
PG02  14298.275630 -14428.365319  17258.681461    585.361020  6  6  5 119       
PG03  13007.251623  22852.939799  -3623.382140     17.872688  8  4  5 114       
PG04   -623.844990  15903.218753 -21589.323806 999999.999999
PG05   3883.578422 -18039.061370  18979.780563   -203.652102  6  5  7  98       
PG06  24071.052533  -7836.686841   8026.957590     43.173052  7  6  5 121       
PG07  22935.414961   6791.569093  12071.670763    481.284736  8  7  5 112       
PG08  -2905.243587  24172.185005 -10590.858574     -2.688206  9  6  4 128       
PG09  12401.067532   9392.512703  21523.038322    -11.063324  5  4  4 121       
PG11   5426.898025  16074.545482 -20980.695567   -599.583390  8  3  5  96       
PG12 -10235.670182 -23831.677004  -6326.328089    321.283776  9  6  5  79       
PG13  12514.385589 -23415.692745  -2103.144347   -143.193382  5  7  6  97       
PG14 -18146.091926   7684.547321 -17480.178746     39.912681  8  5  6  98       
PG15   1288.866775 -24205.751314 -10561.940410   -267.535022  7  7  5 121       
PG16  -4737.176355  16979.211998  19659.192593    -94.576117  8  7  6 109       
PG17  17812.481231  -9282.368267 -16966.096709   -185.128584  7  6  7 112       
PG18 -20175.097679 -12710.420949 -11480.004220    427.700775 10  7  8 107       
PG19  -3567.213578  23088.112937 -12458.813588   -518.804218  6  6  4  92       
PG20 -11633.192459 -22654.089383   7238.877472    349.143010 10  6  7 111       
PG21 -24538.395637  -4833.293324  10130.811678   -474.066801  5  6  2  96       
PG22 -17927.636325    447.523227 -19403.145507    383.949625  8  7  4 103       
PG23   3649.227001  20365.250315  16565.881523   -128.794304  3  5  6  81       
PG24  -6760.889585 -14479.157454 -21269.577675     -3.455076  6  5  7 119       
PG25 -17918.952471 -18880.065398   5598.449930    -28.870493  6  5  7  93       
PG26 -12432.338624   8773.274973  21762.141410    -33.261307  7  5  5  92       
PG27 -11958.589695  23591.932796   1521.279765     13.897598  7  5  5 112       
PG28  17555.078363   5458.003487 -18583.030799    462.369201  8  7  5 124       
PG29 -10049.796077 -12109.339417  21416.803442    629.580772 10  7  5 104       
PG30  26569.258568    458.438390   1306.547773     10.988227  6  4  5 102       
PG31 -23999.462055   7585.321714   9125.177772    305.477087  9  4  4 108       
PG32   1958.092387  22885.339781 -13826.718879    -64.964734  7  6  6  87       
*  2015  8 22 23  0  0.00000000
PG01   7401.090228  13965.748075 -21436.609380     -0.819697  7  7  5 110       
PG02  16136.735626 -14497.666993  15402.112869    585.362824  7  6  5 115       
PG03  12456.899527  22547.390112  -6400.730071     17.874737  8  3  5 112       
PG04  -2991.824273  16182.645457 -21148.827779 999999.999999
PG05   5364.226776 -16327.912121  20146.700034   -203.648104  5  6  7 105       
PG06  24857.928745  -7695.552943   5304.180114     43.179966  7  7  5 113       
PG07  21478.504841   7092.730466  14348.768393    481.286320  7  6  5 109       
PG08  -3532.984965  25069.091312  -8012.968394     -2.688964 10  5  4 132       
PG09  11415.178950  11618.292430  20973.655436    -11.063232  5  4  5 116       
PG11   3353.614523  17068.760132 -20606.831630   -599.585891  7  3  4 102       
PG12  -9632.390251 -23203.340039  -9047.630928    321.286967  8  6  5 102       
PG13  12728.725695 -23365.861375    769.009226   -143.196139  6  7  6  89       
PG14 -17292.015088   5717.724761 -19023.984781     39.910590  9  6  6 103       
PG15   1958.212295 -25096.245841  -8029.063240   -267.537089  7  7  5 125       
PG16  -6090.243202  15072.449322  20833.961576    -94.572498  8  7  6 107       
PG17  17040.882404  -7328.653410 -18624.561862   -185.129902  7  6  7 113       
PG18 -20708.011205 -13870.180833  -9064.841639    427.703810 10  7  8 115       
PG19  -4360.347193  24097.374733  -9968.917526   -518.804733  7  5  4  91       
PG20 -10722.807118 -22123.116652   9792.652108    349.145565 10  6  7 116       
PG21 -23389.821173  -5241.783126  12502.845305   -474.068999  5  6  2 107       
PG22 -19169.234766  -1378.389746 -18163.543812    383.953373  9  7  5 105       
PG23   2746.483680  21910.701539  14594.457881   -128.796334  5  4  5  92       
PG24  -4340.784200 -14851.716791 -21628.143123     -3.455083  6  5  6 128       
PG25 -18061.084769 -19383.343431   2769.921787    -28.874861  7  5  6 102       
PG26 -13921.968757   6789.396228  21569.125571    -33.269422  8  6  5  85       
PG27 -12050.037991  23183.872763   4372.273625     13.900173  7  5  5 116       
PG28  18621.893060   7311.099461 -16893.942822    462.371799  8  7  5 128       
PG29  -8943.297813 -14235.313782  20586.821555    629.582841  9  6  5 100       
PG30  26272.200305    736.506223   4124.255217     10.994517  5  4  5  93       
PG31 -24877.745651   7488.015843   6447.155826    305.475850  9  4  4 104       
PG32    905.881562  21567.561240 -15858.308401    -64.955212  7  6  6  81       
EOF
